[{"OBJECT_NAME":"STARLINK-1304","OBJECT_ID":"2020-019S","EPOCH":"2026-03-09T12:23:26.505600","MEAN_MOTION":15.48251524,"ECCENTRICITY":0.00022692,"INCLINATION":53.0494,"RA_OF_ASC_NODE":150.3277,"ARG_OF_PERICENTER":330.5798,"MEAN_ANOMALY":29.5081,"EPHEMERIS_TYPE":0,"CLASSIFICATION_TYPE":"U","NORAD_CAT_ID":45376,"ELEMENT_SET_NO":999,"REV_AT_EPOCH":32994,"BSTAR":0.0015279259,"MEAN_MOTION_DOT":0.00082321,"MEAN_MOTION_DDOT":0},{"OBJECT_NAME":"SITRO-AIS 46","OBJECT_ID":"2024-199AR","EPOCH":"2026-03-09T22:46:46.525440","MEAN_MOTION":15.51304628,"ECCENTRICITY":0.00068268,"INCLINATION":97.307,"RA_OF_ASC_NODE":303.3786,"ARG_OF_PERICENTER":303.3302,"MEAN_ANOMALY":56.7296,"EPHEMERIS_TYPE":0,"CLASSIFICATION_TYPE":"U","NORAD_CAT_ID":61774,"ELEMENT_SET_NO":999,"REV_AT_EPOCH":11904,"BSTAR":0.00081688742,"MEAN_MOTION_DOT":0.00048106,"MEAN_MOTION_DDOT":0}]
